SPACEBEE-112            
1 52025U 22026T   23115.00552514  .00048548  00000+0  16070-2 0  9994
2 52025  97.5080 118.7897 0016625 260.5733  99.3628 15.31027962 61417
SPACEBEENZ-13           
1 52026U 22026U   23115.30760405  .00053413  00000+0  16095-2 0  9992
2 52026  97.5049 119.5659 0015464 255.6848 104.2678 15.34026317 61406
SPACEBEE-123            
1 52027U 22026V   23115.04056839  .00044926  00000+0  16130-2 0  9992
2 52027  97.5078 118.2311 0017907 264.0754  95.8444 15.28382205 61291
SPACEBEENZ-12           
1 52028U 22026W   23115.48623055  .00035858  00000+0  11391-2 0  9999
2 52028  97.5119 119.5974 0015943 257.7115 102.2342 15.32433324 61503
SPACEBEE-124            
1 52029U 22026X   23115.77280293  .00027655  00000+0  99654-3 0  9990
2 52029  97.5075 118.9330 0017935 261.1053  98.8155 15.28371106 60120
SPACEBEE-136            
1 52164U 22033H   23115.29921739  .00068204  00000+0  14838-2 0  9997
2 52164  97.3463 198.9687 0004138 345.6966  14.4164 15.44063120 59353
SPACEBEE-138            
1 52166U 22033K   23115.97682966  .00060724  00000+0  13317-2 0  9990
2 52166  97.3484 199.6985 0005132 331.1836  28.9128 15.43853435 59454
SPACEBEE-130            
1 52176U 22033V   23115.28549120  .00070525  00000+0  15216-2 0  9999
2 52176  97.3468 199.0304 0002936 334.6603  25.4501 15.44303661 59353
SPACEBEE-139            
1 52177U 22033W   23115.19946725  .00068602  00000+0  15585-2 0  9994
2 52177  97.3493 198.6297 0004938 342.6780  17.4298 15.42766702 59314
SPACEBEE-129            
1 52179U 22033Y   23115.18024664  .00063831  00000+0  14900-2 0  9993
2 52179  97.3480 198.4276 0004209 350.8531   9.2638 15.41976123 59308
SPACEBEE-134            
1 52180U 22033Z   23115.19542893  .00062856  00000+0  14956-2 0  9992
2 52180  97.3461 198.2258 0004197 350.3907   9.7259 15.41402965 59295
SPACEBEE-131            
1 52181U 22033AA  23115.81534833  .00053350  00000+0  12534-2 0  9996
2 52181  97.3481 199.1148 0004397 350.6207   9.4957 15.41829616 59382
SPACEBEE-128            
1 52182U 22033AB  23115.16734465  .00064488  00000+0  14897-2 0  9996
2 52182  97.3505 198.5556 0004287 349.3460  10.7695 15.42286979 59306
SPACEBEE-133            
1 52183U 22033AC  23116.12882589  .00057921  00000+0  13510-2 0  9990
2 52183  97.3477 199.4636 0004258 345.4537  14.6587 15.42026084 59430
SPACEBEE-132            
1 52185U 22033AE  23115.81219932  .00061671  00000+0  13570-2 0  9996
2 52185  97.3482 199.4539 0003804   1.3465 358.7793 15.43755618 59393
SPACEBEE-137            
1 52186U 22033AF  23115.17254290  .00062218  00000+0  14489-2 0  9990
2 52186  97.3479 198.4710 0004454 349.6839  10.4316 15.42053938 59304
SPACEBEE-135            
1 52187U 22033AG  23115.23107044  .00067965  00000+0  15026-2 0  9994
2 52187  97.3492 198.8934 0003768 339.8774  20.2324 15.43586781 59337
SPACEBEE-143            
1 52394U 22047A   23115.46780143  .00022461  00000+0  92170-3 0  9999
2 52394  97.4218 199.6512 0008260 165.1064 195.0418 15.24210733 55655
SPACEBEENZ-15           
1 52395U 22047B   23116.03722118  .00039340  00000+0  13957-2 0  9991
2 52395  97.4207 201.0010 0008089 163.2909 196.8599 15.28925849 55790
SPACEBEENZ-16           
1 52396U 22047C   23115.45445849  .00036549  00000+0  13025-2 0  9994
2 52396  97.4205 200.4061 0008017 164.9323 195.2157 15.28797043 55704
SPACEBEENZ-17           
1 52397U 22047D   23115.20533799  .00043237  00000+0  15479-2 0  9997
2 52397  97.4204 200.1291 0008217 165.8254 194.3218 15.28605662 55669
SPACEBEENZ-18           
1 52398U 22047E   23115.99364122  .00036660  00000+0  13121-2 0  9990
2 52398  97.4201 200.9061 0007947 163.3980 196.7522 15.28655489 55787
SPACEBEE-140            
1 52399U 22047F   23115.70555417  .00027101  00000+0  10496-2 0  9991
2 52399  97.4219 200.2438 0008125 162.9373 197.2140 15.26110981 55736
SPACEBEE-141            
1 52400U 22047G   23115.43957208  .00023388  00000+0  95560-3 0  9997
2 52400  97.4223 199.6902 0008294 163.3028 196.8484 15.24347783 55668
SPACEBEE-142            
1 52401U 22047H   23115.21528886  .00031117  00000+0  12820-2 0  9996
2 52401  97.4212 199.3636 0008319 164.0836 196.0664 15.24007309 55615
SPACEBEENZ-20           
1 52402U 22047J   23115.22599907  .00041523  00000+0  14931-2 0  9997
2 52402  97.4198 200.0690 0008718 167.4168 192.7291 15.28467234 55662
SPACEBEENZ-22           
1 52403U 22047K   23115.80037653  .00033895  00000+0  12488-2 0  9995
2 52403  97.4198 200.5283 0008810 166.0479 194.1005 15.27712920 55741
SPACEBEENZ-19           
1 52404U 22047L   23115.47525884  .00033499  00000+0  11998-2 0  9992
2 52404  97.4203 200.3546 0008560 167.1173 193.0287 15.28647214 55704
SPACEBEENZ-21           
1 52405U 22047M   23115.50090413  .00033044  00000+0  11974-2 0  9992
2 52405  97.4202 200.3186 0008641 167.1194 193.0268 15.28266269 55703
SPACEBEE-148            
1 52406U 22047N   23115.46653098  .00033271  00000+0  12938-2 0  9995
2 52406  97.4209 199.9221 0008676 167.0382 193.1081 15.25927483 55679
SPACEBEE-149            
1 52407U 22047P   23115.19363383  .00032965  00000+0  13366-2 0  9996
2 52407  97.4209 199.3642 0008736 166.9658 193.1807 15.24529450 55613
SPACEBEE-153            
1 52408U 22047Q   23115.19888093  .00033490  00000+0  13423-2 0  9995
2 52408  97.4243 199.6571 0008790 177.2444 182.8844 15.24913052 55626
SPACEBEE-150            
1 52409U 22047R   23115.47174811  .00022512  00000+0  92496-3 0  9994
2 52409  97.4210 199.6161 0008795 166.7779 193.3691 15.24162744 55659
SPACEBEE-144            
1 52410U 22047S   23115.27672898  .00029843  00000+0  12276-2 0  9993
2 52410  97.4219 199.4478 0008297 166.3082 193.8381 15.24068979 55622
SPACEBEE-145            
1 52411U 22047T   23115.80881215  .00021868  00000+0  89993-3 0  9998
2 52411  97.4218 199.9521 0008277 164.0181 196.1319 15.24119251 55705
SPACEBEE-146            
1 52412U 22047U   23115.30077749  .00031132  00000+0  12733-2 0  9995
2 52412  97.4217 199.3952 0008255 166.7498 193.3957 15.24252927 55629
SPACEBEE-151            
1 52413U 22047V   23115.22670982  .00030674  00000+0  12635-2 0  9996
2 52413  97.4214 199.3263 0008840 168.5499 191.5941 15.24012861 55616
SPACEBEE-152            
1 52414U 22047W   23115.71170332  .00022258  00000+0  92235-3 0  9999
2 52414  97.4211 199.7364 0008746 167.0780 193.0683 15.23877890 55689
SPACEBEE-147            
1 52415U 22047X   23115.18058900  .00031252  00000+0  12957-2 0  9993
2 52415  97.4220 199.2727 0008102 169.2860 190.8551 15.23795351 55609
SPACEBEE-155            
1 52416U 22047Y   23115.47090289  .00021591  00000+0  91351-3 0  9993
2 52416  97.4192 199.2620 0009271 171.2118 188.9283 15.23176168 55639
SPACEBEE-154            
1 52417U 22047Z   23115.20069841  .00030678  00000+0  12740-2 0  9995
2 52417  97.4210 199.2070 0008690 169.8920 190.2493 15.23739300 55607
SPACEBEE-167            
1 55087U 23001CG  23116.11161567  .00016519  00000+0  81716-3 0  9999
2 55087  97.4814 176.6872 0015706 179.5956 180.5294 15.17781193 17198
SPACEBEE-163            
1 55089U 23001CJ  23116.09849314  .00018183  00000+0  88991-3 0  9992
2 55089  97.4811 176.6981 0015537 179.5580 180.5671 15.18136879 17198
SPACEBEE-164            
1 55091U 23001CL  23116.09948843  .00016593  00000+0  81479-3 0  9999
2 55091  97.4809 176.6995 0016032 179.2102 180.9160 15.18034306 17190
SPACEBEE-166            
1 55092U 23001CM  23115.22292816  .00021447  00000+0  10358-2 0  9997
2 55092  97.4808 175.8783 0017554 183.9818 176.1279 15.18533655 17067
SPACEBEE-165            
1 55094U 23001CP  23116.09036356  .00016928  00000+0  82675-3 0  9990
2 55094  97.4807 176.7071 0015256 178.1674 181.9619 15.18228660 17194
SPACEBEE-162            
1 55095U 23001CQ  23115.17102968  .00020910  00000+0  10230-2 0  9995
2 55095  97.4815 175.7932 0016251 181.9631 178.1542 15.18109280 17054
SPACEBEE-161            
1 55096U 23001CR  23115.10320467  .00021987  00000+0  10740-2 0  9996
2 55096  97.4809 175.7304 0016214 181.7067 178.4114 15.18153072 17046
SPACEBEE-160            
1 55097U 23001CS  23116.08902979  .00016490  00000+0  80510-3 0  9995
2 55097  97.4807 176.7118 0016399 178.2441 181.8854 15.18229234 17199
SPACEBEE-156            
1 55099U 23001CU  23116.08794285  .00017005  00000+0  82906-3 0  9990
2 55099  97.4808 176.7133 0016396 178.1563 181.9735 15.18271559 17196
SPACEBEE-158            
1 55100U 23001CV  23115.16652671  .00020386  00000+0  99546-3 0  9997
2 55100  97.4813 175.7983 0016648 181.7444 178.3734 15.18175301 17057
SPACEBEE-159            
1 55101U 23001CW  23116.07315112  .00017525  00000+0  84603-3 0  9994
2 55101  97.4808 176.7327 0017767 179.9503 180.1736 15.18588670 17198
SPACEBEE-157            
1 55102U 23001CX  23115.40938222  .00022056  00000+0  10574-2 0  9994
2 55102  97.4795 176.0777 0015770 183.6008 176.5116 15.18811113 17091
